2 48473  53.0525 223.2694 0001460  86.1804 273.9352 15.06436615194185
STARLINK-2697           
1 48474U 21040AY  24311.18300561 -.00011447  00000+0 -75130-3 0  9996
2 48474  53.0541 224.6107 0001807 108.0706 252.0480 15.06375332194131
STARLINK-2619           
1 48475U 21040AZ  24310.51395358  .00066758  00000+0  38336-2 0  9990
2 48475  53.0571 226.4813 0005826 107.6087 252.5541 15.11909020194058
STARLINK-2723           
1 48476U 21040BA  24310.91667824  .01387696  00000+0  40704-1 0  9994
2 48476  53.0519 224.8390 0001140  99.9319  72.2715 15.31582486194111
STARLINK-2728           
1 48478U 21040BC  24311.09456064  .00046056  00000+0  30904-2 0  9991
2 48478  53.0526 225.0107 0001953  74.0346 286.0858 15.06403226193451
STARLINK-2755           
1 48479U 21040BD  24311.48893887 -.00000526  00000+0 -16420-4 0  9996
2 48479  53.0536 223.2337 0000772 112.4524 247.6547 15.06388918194180
STARLINK-2706           
1 48481U 21040BF  24311.07889980 -.00025117  00000+0 -16745-2 0  9994
2 48481  53.0556 235.3566 0002553  81.7160 278.4119 15.06370074193973
STARLINK-2525           
1 48482U 21040BG  24311.17840714  .00014624  00000+0  99890-3 0  9990
2 48482  53.0535 234.6258 0001549 146.6572 213.4515 15.06389623193163
STARLINK-2531           
1 48483U 21040BH  24311.17472328  .00001051  00000+0  89482-4 0  9990
2 48483  53.0532 234.6442 0001334  75.9689 284.1448 15.06381902193994
STARLINK-2696           
1 48484U 21040BJ  24311.48986244  .00097373  00000+0  46872-2 0  9998
2 48484  53.0464 229.7896 0006400 117.4643 242.7002 15.17954230194098
STARLINK-2500           
1 48485U 21040BK  24311.11574938  .00010248  00000+0  70604-3 0  9999
2 48485  53.0535 234.9119 0001374 127.0329 233.0786 15.06392329193989
STARLINK-2494           
1 48487U 21040BM  24311.05676403  .00002938  00000+0  21607-3 0  9990
2 48487  53.0547 235.1712 0001165 129.4571 230.6521 15.06396724193982
STARLINK-2063           
1 48553U 21041A   24310.90104121  .00002457  00000+0  18379-3 0  9999
2 48553  53.0533 165.8765 0000853  74.6139 285.4944 15.06394045191981
STARLINK-2139           
1 48554U 21041B   24311.33602541  .00013491  00000+0  92254-3 0  9991
2 48554  53.0527 164.2314 0001497  74.3215 285.7939 15.06411464191998
STARLINK-2145           
1 48555U 21041C   24311.33506199  .00005265  00000+0  37215-3 0  9990
2 48555  53.0518 173.9288 0001564  84.7069 275.4098 15.06391445191902
STARLINK-2151           
1 48556U 21041D   24310.92593259  .00010103  00000+0  69610-3 0  9999
2 48556  53.0524 175.7603 0000905  74.7251 285.3838 15.06403090191846
STARLINK-2155           
1 48557U 21041E   24310.66514667  .00002589  00000+0  19266-3 0  9998
2 48557  53.0508 166.9294 0001153  89.9424 270.1697 15.06395102191943
STARLINK-2166           
1 48558U 21041F   24310.92685123  .00004050  00000+0  29067-3 0  9999
2 48558  53.0523 165.7618 0001313  79.4304 280.6832 15.06397522191931
STARLINK-2187           
1 48562U 21041K   24311.10375069  .00016099  00000+0  10985-2 0  9994
2 48562  53.0528 164.9641 0000426  39.2586 320.8433 15.06354962191966
STARLINK-2188           
1 48563U 21041L   24311.12220325  .00007883  00000+0  54744-3 0  9994
2 48563  53.0520 164.8832 0001064  84.9960 275.1150 15.06402752192018
STARLINK-2190           
1 48564U 21041M   24310.91577988  .00000258  00000+0  36234-4 0  9995
2 48564  53.0521 165.8104 0001199 103.3379 256.7744 15.06390374191932
STARLINK-2191           
1 48565U 21041N   24311.58334491  .00148787  00000+0  58333-2 0  9992
2 48565  53.0514 156.7649 0010294 168.1240 110.5485 15.24657511192164
STARLINK-2214           
1 48566U 21041P   24310.33617351  .00002047  00000+0  15626-3 0  9991
2 48566  53.0529 178.3816 0001082  46.7636 313.3443 15.06395504191305
STARLINK-2217           
1 48568U 21041R   24310.89367660 -.00000050  00000+0  15510-4 0  9995
2 48568  53.0525 165.9059 0001469  90.5575 269.5582 15.06393938191925
STARLINK-2219           
1 48569U 21041S   24310.91947862  .00009760  00000+0  67304-3 0  9990
2 48569  53.0517 165.7979 0001314  86.3288 273.7851 15.06407222191938
STARLINK-2220           
1 48570U 21041T   24310.90748678 -.00003519  00000+0 -21749-3 0  9996
2 48570  53.0532 175.8462 0001484  88.9686 271.1473 15.06392302191781
STARLINK-2221           
1 48571U 21041U   24311.04756556  .00020218  00000+0  13723-2 0  9992
2 48571  53.0530 175.2191 0001290  86.4251 273.6886 15.06399687191811
STARLINK-2222           
1 48572U 21041V   24310.91118547  .00002388  00000+0  17918-3 0  9999
2 48572  53.0524 175.8271 0001259  74.9831 285.1297 15.06391028191793
STARLINK-2224           
1 48573U 21041W   24310.88997937  .00010722  00000+0  73739-3 0  9998
2 48573  53.0531 165.9262 0001394  87.9069 272.2079 15.06409686191974
STARLINK-2225           
1 48574U 21041X   24310.72687679 -.00002260  00000+0 -13295-3 0  9992
2 48574  53.0522 136.7426 0001162  88.2343 271.8779 15.06389090192312
STARLINK-2227           
1 48575U 21041Y   24311.47240106  .00011755  00000+0  80644-3 0  9995
2 48575  53.0534 123.6245 0001168  81.7086 278.4035 15.06411745192634
STARLINK-2228           
1 48576U 21041Z   24310.74300210 -.00000939  00000+0 -44187-4 0  9995
2 48576  53.0513 141.5826 0001589  98.6036 261.5133 15.06385235192316
STARLINK-2231           
1 48577U 21041AA  24311.04114185  .00000802  00000+0  72729-4 0  9994
2 48577  53.0509 165.5134 0001296 108.9099 251.2031 15.06382629191999
STARLINK-2232           
1 48578U 21041AB  24311.11120604  .00012724  00000+0  87180-3 0  9998
2 48578  53.0521 165.4413 0001208  72.5445 287.5676 15.06389789192001
STARLINK-2234           
1 48580U 21041AD  24311.10421906  .00002589  00000+0  19269-3 0  9990
2 48580  53.0526 139.9750 0001322 105.6534 254.4601 15.06394965192365
STARLINK-2235           
1 48581U 21041AE  24311.19729514  .00015217  00000+0  10382-2 0  9994
2 48581  53.0532 129.5556 0001357  88.8249 271.2896 15.06402742192529
STARLINK-2236           
1 48582U 21041AF  24310.78080814 -.00002342  00000+0 -13849-3 0  9991
2 48582  53.0522 131.5796 0001337  90.7398 269.3744 15.06377535192445
STARLINK-2237           
1 48583U 21041AG  24311.11759632  .00014297  00000+0  97684-3 0  9990
2 48583  53.0530 174.9043 0000881  76.2062 283.9025 15.06395704191879
STARLINK-2238           
1 48584U 21041AH  24311.35718186  .00029987  00000+0  20235-2 0  9995
2 48584  53.0524 173.8303 0001037  92.0231 268.0877 15.06399474191853
STARLINK-2240           
1 48585U 21041AJ  24310.90378612 -.00001240  00000+0 -64385-4 0  9992
2 48585  53.0519 175.8599 0001338  87.6914 272.4228 15.06385521191788
STARLINK-2241           
1 48586U 21041AK  24311.09547801  .00048135  00000+0  32272-2 0  9992
2 48586  53.0520 175.0036 0001285 102.3280 257.7853 15.06413926191816
STARLINK-2242           
1 48587U 21041AL  24310.90009918 -.00001089  00000+0 -54229-4 0  9991
2 48587  53.0525 175.8757 0001202  90.6532 269.4595 15.06383785191786
STARLINK-2244           
1 48588U 21041AM  24310.88260194  .00000886  00000+0  78358-4 0  9995
2 48588  53.0525 165.9983 0001173  72.1996 287.9121 15.06394839191977
STARLINK-2245           
1 48589U 21041AN  24310.87523738  .00006707  00000+0  46889-3 0  9992
2 48589  53.0525 165.9859 0001091 130.6458 229.4626 15.06385191191974
STARLINK-2249           
1 48592U 21041AR  24311.35352425  .00018765  00000+0  12753-2 0  9992
2 48592  53.0519 174.0776 0001287  93.3897 266.7240 15.06400353191759
STARLINK-2250           
1 48593U 21041AS  24310.94067397  .00016201  00000+0  11043-2 0  9992
2 48593  53.0519 175.6988 0001261  98.7101 261.4031 15.06390297191699
STARLINK-2251           
1 48594U 21041AT  24311.23463008  .00005576  00000+0  39293-3 0  9996
2 48594  53.0522 144.4653 0001328  80.8877 279.2262 15.06399523192317
STARLINK-2252           
1 48595U 21041AU  24311.12127887  .00033098  00000+0  22312-2 0  9990
2 48595  53.0533 174.8867 0001334  89.3047 270.8095 15.06387909192691
STARLINK-2253           
1 48596U 21041AV  24311.14340406  .00017597  00000+0  11978-2 0  9999
2 48596  53.0518 174.7836 0001251 114.6748 245.4372 15.06384215191881
STARLINK-2255           
1 48597U 21041AW  24310.95172826  .00032113  00000+0  21656-2 0  9992
2 48597  53.0518 175.6502 0001433  94.9570 265.1583 15.06389134192662
STARLINK-2275           
1 48600U 21041AZ  24310.88629463  .00001401  00000+0  11292-3 0  9995
2 48600  53.0531 165.9412 0001407  80.4188 279.6960 15.06394258192796
STARLINK-2713           
1 48602U 21041BB  24310.74944060  .00007235  00000+0  50445-3 0  9999
2 48602  53.0504 151.5565 0001476  82.2332 277.8824 15.06373936192985
STARLINK-2714           
1 48603U 21041BC  24311.06042482  .00007937  00000+0  55126-3 0  9993
2 48603  53.0520 145.1603 0001417 108.1160 251.9983 15.06393100193107
STARLINK-2757           
1 48604U 21041BD  24311.32769364  .00020195  00000+0  13714-2 0  9995
2 48604  53.0527 173.9604 0001225  74.2219 285.8905 15.06383012192728
STARLINK-2739           
1 48639U 21044B   24311.26548441  .00009927  00000+0  68461-3 0  9990
2 48639  53.0532 149.2528 0001183  93.3102 266.8022 15.06389195191062
STARLINK-2736           
1 48640U 21044C   24310.26293904 -.00001798  00000+0 -10187-3 0  9994
2 48640  53.0527 154.0225 0001607  93.4975 266.6198 15.06397003190008
STARLINK-2754           
1 48641U 21044D   24310.73977548  .00002272  00000+0  17139-3 0  9990
2 48641  53.0530 156.6017 0001692  85.0026 275.1156 15.06400182190910
STARLINK-2646           
1 48642U 21044E   24310.88722369  .00016581  00000+0  11290-2 0  9995
2 48642  53.0531 155.9492 0001363  88.1686 271.9459 15.06413201190873
STARLINK-2704           
1 48643U 21044F   24311.26592274  .00020058  00000+0  13620-2 0  9992
2 48643  53.0543 154.2205 0000842  91.8795 268.2290 15.06389450190997
STARLINK-2695           
1 48644U 21044G   24311.26318147  .00005141  00000+0  36384-3 0  9997
2 48644  53.0529 154.2511 0001222  88.0849 272.0280 15.06395433190937
